start=new Date('2021-08-29T00:00:00.000Z').valueOf();
sats=[{"OBJECT_NAME":"STARLINK-2153","REV_AT_EPOCH":"2543","CENTER_NAME":"EARTH","CLASSIFICATION_TYPE":"U","GP_ID":"183610577","RA_OF_ASC_NODE":"183.3723","COUNTRY_CODE":"US","SEMIMAJOR_AXIS":"6925.351","OBJECT_ID":"2021-024AJ","MEAN_ELEMENT_THEORY":"SGP4","REF_FRAME":"TEME","OBJECT_TYPE":"PAYLOAD","TLE_LINE1":"1 48009U 21024AJ  21240.31714410 -.00000529  00000-0 -16612-4 0  9998","SITE":"AFETR","PERIAPSIS":"546.086","INCLINATION":"53.0543","RCS_SIZE":"LARGE","PERIOD":"95.592","FILE":"3104340","ELEMENT_SET_NO":"999","MEAN_MOTION_DOT":"-0.00000529","MEAN_ANOMALY":"305.8031","TLE_LINE2":"2 48009  53.0543 183.3723 0001632  54.3110 305.8031 15.06399234 25432","LAUNCH_DATE":"2021-03-24","ARG_OF_PERICENTER":"54.3110","NORAD_CAT_ID":"48009","BSTAR":"-0.00001661200000","MEAN_MOTION_DDOT":"0.0000000000000","ECCENTRICITY":"0.00016320","EPOCH":"2021-08-28T07:36:41.250240","MEAN_MOTION":"15.06399234","DECAY_DATE":null,"APOAPSIS":"548.346","TIME_SYSTEM":"UTC","EPHEMERIS_TYPE":"0"},{"COUNTRY_CODE":"US","SEMIMAJOR_AXIS":"6930.356","RA_OF_ASC_NODE":"203.9030","CLASSIFICATION_TYPE":"U","GP_ID":"183610829","REV_AT_EPOCH":"2513","CENTER_NAME":"EARTH","OBJECT_NAME":"STARLINK-2226","INCLINATION":"53.0492","PERIAPSIS":"551.044","TLE_LINE1":"1 48010U 21024AK  21240.18106874 -.00000689  00000-0 -28902-4 0  9996","SITE":"AFETR","OBJECT_TYPE":"PAYLOAD","REF_FRAME":"TEME","MEAN_ELEMENT_THEORY":"SGP4","OBJECT_ID":"2021-024AK","TLE_LINE2":"2 48010  53.0492 203.9030 0001698  64.2760 295.8403 15.04767652 25139","MEAN_ANOMALY":"295.8403","MEAN_MOTION_DOT":"-0.00000689","ELEMENT_SET_NO":"999","FILE":"3104340","RCS_SIZE":"LARGE","PERIOD":"95.696","EPHEMERIS_TYPE":"0","APOAPSIS":"553.398","TIME_SYSTEM":"UTC","DECAY_DATE":null,"MEAN_MOTION":"15.04767652","EPOCH":"2021-08-28T04:20:44.339136","MEAN_MOTION_DDOT":"0.0000000000000","ECCENTRICITY":"0.00016980","BSTAR":"-0.00002890200000","NORAD_CAT_ID":"48010","ARG_OF_PERICENTER":"64.2760","LAUNCH_DATE":"2021-03-24"},{"OBJECT_NAME":"STARLINK-2272","REV_AT_EPOCH":"2552","CENTER_NAME":"EARTH","GP_ID":"183638181","CLASSIFICATION_TYPE":"U","RA_OF_ASC_NODE":"182.3270","COUNTRY_CODE":"US","SEMIMAJOR_AXIS":"6925.320","MEAN_ELEMENT_THEORY":"SGP4","OBJECT_ID":"2021-024AL","REF_FRAME":"TEME","OBJECT_TYPE":"PAYLOAD","INCLINATION":"53.0543","PERIAPSIS":"546.054","TLE_LINE1":"1 48011U 21024AL  21240.54935727  .00000542  00000-0  55257-4 0  9993","SITE":"AFETR","FILE":"3104555","PERIOD":"95.592","RCS_SIZE":"LARGE","MEAN_MOTION_DOT":"0.00000542","ELEMENT_SET_NO":"999","MEAN_ANOMALY":"300.4876","TLE_LINE2":"2 48011  53.0543 182.3270 0001632  59.6274 300.4876 15.06409433 25521","ARG_OF_PERICENTER":"59.6274","LAUNCH_DATE":"2021-03-24","NORAD_CAT_ID":"48011","ECCENTRICITY":"0.00016320","MEAN_MOTION_DDOT":"0.0000000000000","BSTAR":"0.00005525700000","EPHEMERIS_TYPE":"0","APOAPSIS":"548.315","TIME_SYSTEM":"UTC","DECAY_DATE":null,"MEAN_MOTION":"15.06409433","EPOCH":"2021-08-28T13:11:04.468128"},{"ELEMENT_SET_NO":"999","MEAN_MOTION_DOT":"0.00002014","PERIOD":"95.592","RCS_SIZE":"LARGE","FILE":"3104555","TLE_LINE2":"2 48012  53.0540 157.6048 0002053  81.3713 278.7508 15.06409454 25864","MEAN_ANOMALY":"278.7508","NORAD_CAT_ID":"48012","LAUNCH_DATE":"2021-03-24","ARG_OF_PERICENTER":"81.3713","MEAN_MOTION":"15.06409454","EPOCH":"2021-08-28T11:42:51.223968","EPHEMERIS_TYPE":"0","APOAPSIS":"548.606","TIME_SYSTEM":"UTC","DECAY_DATE":null,"BSTAR":"0.00015404000000","ECCENTRICITY":"0.00020530","MEAN_MOTION_DDOT":"0.0000000000000","GP_ID":"183637932","CLASSIFICATION_TYPE":"U","REV_AT_EPOCH":"2586","CENTER_NAME":"EARTH","OBJECT_NAME":"STARLINK-2216","COUNTRY_CODE":"US","SEMIMAJOR_AXIS":"6925.320","RA_OF_ASC_NODE":"157.6048","REF_FRAME":"TEME","OBJECT_ID":"2021-024AM","MEAN_ELEMENT_THEORY":"SGP4","PERIAPSIS":"545.763","TLE_LINE1":"1 48012U 21024AM  21240.48809287  .00002014  00000-0  15404-3 0  9993","SITE":"AFETR","INCLINATION":"53.0540","OBJECT_TYPE":"PAYLOAD"},{"SEMIMAJOR_AXIS":"6937.847","COUNTRY_CODE":"US","RA_OF_ASC_NODE":"166.8902","GP_ID":"183611077","CLASSIFICATION_TYPE":"U","REV_AT_EPOCH":"2566","OBJECT_NAME":"STARLINK-2243","CENTER_NAME":"EARTH","INCLINATION":"53.0543","PERIAPSIS":"558.505","TLE_LINE1":"1 48013U 21024AN  21240.27508333  .00001612  00000-0  14086-3 0  9997","SITE":"AFETR","OBJECT_TYPE":"PAYLOAD","REF_FRAME":"TEME","MEAN_ELEMENT_THEORY":"SGP4","OBJECT_ID":"2021-024AN","TLE_LINE2":"2 48013  53.0543 166.8902 0001740  70.4236 289.6939 15.02331160 25661","MEAN_ANOMALY":"289.6939","MEAN_MOTION_DOT":"0.00001612","ELEMENT_SET_NO":"999","FILE":"3104340","RCS_SIZE":"LARGE","PERIOD":"95.851","APOAPSIS":"560.919","EPHEMERIS_TYPE":"0","TIME_SYSTEM":"UTC","DECAY_DATE":null,"MEAN_MOTION":"15.02331160","EPOCH":"2021-08-28T06:36:07.199712","ECCENTRICITY":"0.00017400","MEAN_MOTION_DDOT":"0.0000000000000","BSTAR":"0.00014086000000","NORAD_CAT_ID":"48013","ARG_OF_PERICENTER":"70.4236","LAUNCH_DATE":"2021-03-24"},{"LAUNCH_DATE":"2021-03-24","ARG_OF_PERICENTER":"285.0269","NORAD_CAT_ID":"48014","BSTAR":"-0.00849670000000","MEAN_MOTION_DDOT":"0.0000000000000","ECCENTRICITY":"0.00055050","MEAN_MOTION":"15.70013795","EPOCH":"2021-08-28T21:51:17.187840","APOAPSIS":"362.568","EPHEMERIS_TYPE":"0","TIME_SYSTEM":"UTC","DECAY_DATE":null,"RCS_SIZE":"LARGE","PERIOD":"91.719","FILE":"3104555","ELEMENT_SET_NO":"999","MEAN_MOTION_DOT":"-0.00949386","MEAN_ANOMALY":"75.0138","TLE_LINE2":"2 48014  53.0452 141.4547 0005505 285.0269  75.0138 15.70013795 26124","OBJECT_ID":"2021-024AP","MEAN_ELEMENT_THEORY":"SGP4","REF_FRAME":"TEME","OBJECT_TYPE":"PAYLOAD","PERIAPSIS":"355.151","TLE_LINE1":"1 48014U 21024AP  21240.91061560 -.00949386  00000-0 -84967-2 0  9990","SITE":"AFETR","INCLINATION":"53.0452","REV_AT_EPOCH":"2612","OBJECT_NAME":"STARLINK-2283","CENTER_NAME":"EARTH","CLASSIFICATION_TYPE":"U","GP_ID":"183639429","RA_OF_ASC_NODE":"141.4547","SEMIMAJOR_AXIS":"6736.995","COUNTRY_CODE":"US"},{"MEAN_ELEMENT_THEORY":"SGP4","OBJECT_ID":"2021-024AQ","REF_FRAME":"TEME","OBJECT_TYPE":"PAYLOAD","INCLINATION":"53.0449","PERIAPSIS":"346.808","TLE_LINE1":"1 48015U 21024AQ  21240.46469908  .00062084  00000-0  44177-3 0  9998","SITE":"AFETR","REV_AT_EPOCH":"2600","CENTER_NAME":"EARTH","OBJECT_NAME":"STARLINK-2281","GP_ID":"183637682","CLASSIFICATION_TYPE":"U","RA_OF_ASC_NODE":"143.6557","SEMIMAJOR_AXIS":"6727.667","COUNTRY_CODE":"US","ARG_OF_PERICENTER":"11.6251","LAUNCH_DATE":"2021-03-24","NORAD_CAT_ID":"48015","ECCENTRICITY":"0.00040480","MEAN_MOTION_DDOT":"0.0000000000000","BSTAR":"0.00044177000000","TIME_SYSTEM":"UTC","APOAPSIS":"352.255","EPHEMERIS_TYPE":"0","DECAY_DATE":null,"MEAN_MOTION":"15.73280104","EPOCH":"2021-08-28T11:09:10.000512","FILE":"3104555","PERIOD":"91.529","RCS_SIZE":"LARGE","MEAN_MOTION_DOT":"0.00062084","ELEMENT_SET_NO":"999","MEAN_ANOMALY":"348.4859","TLE_LINE2":"2 48015  53.0449 143.6557 0004048  11.6251 348.4859 15.73280104 26008"},{"MEAN_ELEMENT_THEORY":"SGP4","OBJECT_ID":"2021-024AR","REF_FRAME":"TEME","OBJECT_TYPE":"PAYLOAD","INCLINATION":"53.0452","SITE":"AFETR","TLE_LINE1":"1 48016U 21024AR  21240.46454474 -.00253079  00000-0 -18372-2 0  9996","PERIAPSIS":"344.806","CENTER_NAME":"EARTH","REV_AT_EPOCH":"2605","OBJECT_NAME":"STARLINK-2284","GP_ID":"183638432","CLASSIFICATION_TYPE":"U","RA_OF_ASC_NODE":"143.6551","SEMIMAJOR_AXIS":"6727.445","COUNTRY_CODE":"US","ARG_OF_PERICENTER":"334.2817","LAUNCH_DATE":"2021-03-24","NORAD_CAT_ID":"48016","ECCENTRICITY":"0.00066960","MEAN_MOTION_DDOT":"0.0000000000000","BSTAR":"-0.00183720000000","DECAY_DATE":null,"EPHEMERIS_TYPE":"0","APOAPSIS":"353.815","TIME_SYSTEM":"UTC","EPOCH":"2021-08-28T11:08:56.665536","MEAN_MOTION":"15.73357784","FILE":"3104555","RCS_SIZE":"LARGE","PERIOD":"91.524","MEAN_MOTION_DOT":"-0.00253079","ELEMENT_SET_NO":"999","MEAN_ANOMALY":"25.7867","TLE_LINE2":"2 48016  53.0452 143.6551 0006696 334.2817  25.7867 15.73357784 26058"},{"NORAD_CAT_ID":"48017","ARG_OF_PERICENTER":"33.0031","LAUNCH_DATE":"2021-03-24","TIME_SYSTEM":"UTC","APOAPSIS":"548.184","EPHEMERIS_TYPE":"0","DECAY_DATE":null,"MEAN_MOTION":"15.06405776","EPOCH":"2021-08-28T03:18:35.720352","MEAN_MOTION_DDOT":"0.0000000000000","ECCENTRICITY":"0.00014270","BSTAR":"0.00009937400000","MEAN_MOTION_DOT":"0.00001199","ELEMENT_SET_NO":"999","FILE":"3104340","PERIOD":"95.592","RCS_SIZE":"LARGE","TLE_LINE2":"2 48017  53.0547 189.1816 0001427  33.0031 327.1047 15.06405776 25332","MEAN_ANOMALY":"327.1047","REF_FRAME":"TEME","MEAN_ELEMENT_THEORY":"SGP4","OBJECT_ID":"2021-024AS","INCLINATION":"53.0547","PERIAPSIS":"546.208","SITE":"AFETR","TLE_LINE1":"1 48017U 21024AS  21240.13791343  .00001199  00000-0  99374-4 0  9995","OBJECT_TYPE":"PAYLOAD","GP_ID":"183610578","CLASSIFICATION_TYPE":"U","CENTER_NAME":"EARTH","REV_AT_EPOCH":"2533","OBJECT_NAME":"STARLINK-2239","SEMIMAJOR_AXIS":"6925.331","COUNTRY_CODE":"US","RA_OF_ASC_NODE":"189.1816"},{"OBJECT_TYPE":"PAYLOAD","TLE_LINE1":"1 48018U 21024AT  21240.54529980  .00000097  00000-0  25792-4 0  9996","SITE":"AFETR","PERIAPSIS":"548.629","INCLINATION":"53.0497","OBJECT_ID":"2021-024AT","MEAN_ELEMENT_THEORY":"SGP4","REF_FRAME":"TEME","RA_OF_ASC_NODE":"186.9448","SEMIMAJOR_AXIS":"6927.819","COUNTRY_CODE":"US","REV_AT_EPOCH":"2546","OBJECT_NAME":"STARLINK-2282","CENTER_NAME":"EARTH","CLASSIFICATION_TYPE":"U","GP_ID":"183638930","BSTAR":"0.00002579200000","MEAN_MOTION_DDOT":"0.0000000000000","ECCENTRICITY":"0.00015230","EPOCH":"2021-08-28T13:05:13.902720","MEAN_MOTION":"15.05594303","DECAY_DATE":null,"TIME_SYSTEM":"UTC","APOAPSIS":"550.739","EPHEMERIS_TYPE":"0","LAUNCH_DATE":"2021-03-24","ARG_OF_PERICENTER":"41.5938","NORAD_CAT_ID":"48018","MEAN_ANOMALY":"318.5166","TLE_LINE2":"2 48018  53.0497 186.9448 0001523  41.5938 318.5166 15.05594303 25464","PERIOD":"95.643","RCS_SIZE":"LARGE","FILE":"3104555","ELEMENT_SET_NO":"999","MEAN_MOTION_DOT":"0.00000097"}];
